{
  "type": "FeatureCollection",
  "features": [
    {
      "type": "Feature",
      "properties": {
        "norad_id": 33376,
        "name": "GALAXY 19 (G-19)",
        "group": "intelsat",
        "lat": -0.018097319081941593,
        "lon": -41.7844437540357,
        "alt_km": 35777.8617957617,
        "timestamp": "2025-12-05T22:40:48.226726+00:00",
        "meta_object_name": "GALAXY 19 (G-19)",
        "meta_object_id": "2008-045A",
        "meta_epoch": "2025-12-05T04:26:38.705280",
        "meta_mean_motion": 1.00270722,
        "meta_eccentricity": 0.00034199,
        "meta_inclination": 0.0155,
        "meta_ra_of_asc_node": 44.8359,
        "meta_arg_of_pericenter": 219.5953,
        "meta_mean_anomaly": 139.4813,
        "meta_ephemeris_type": 0,
        "meta_classification_type": "U",
        "meta_norad_cat_id": 33376,
        "meta_element_set_no": 999,
        "meta_rev_at_epoch": 6295,
        "meta_bstar": 0,
        "meta_mean_motion_dot": -1.27e-06,
        "meta_mean_motion_ddot": 0,
        "tle_line1": "1 33376U 08045A   25339.18517020 -.00000127  00000+0  00000+0 0  9994",
        "tle_line2": "2 33376   0.0155  44.8359 0003419 219.5953 139.4813  1.00270722 62951"
      },
      "geometry": {
        "type": "Point",
        "coordinates": [
          -41.7844437540357,
          -0.018097319081941593
        ]
      }
    },
    {
      "type": "Feature",
      "properties": {
        "norad_id": 35493,
        "name": "FM-5",
        "group": "intelsat",
        "lat": 0.012639484927149985,
        "lon": -30.972528493314957,
        "alt_km": 35788.00645010537,
        "timestamp": "2025-12-05T22:40:48.226739+00:00",
        "meta_object_name": "FM-5",
        "meta_object_id": "2009-034A",
        "meta_epoch": "2025-12-05T03:00:50.227776",
        "meta_mean_motion": 1.002701,
        "meta_eccentricity": 4.595e-05,
        "meta_inclination": 0.0168,
        "meta_ra_of_asc_node": 290.648,
        "meta_arg_of_pericenter": 261.6028,
        "meta_mean_anomaly": 200.9934,
        "meta_ephemeris_type": 0,
        "meta_classification_type": "U",
        "meta_norad_cat_id": 35493,
        "meta_element_set_no": 999,
        "meta_rev_at_epoch": 4469,
        "meta_bstar": 0,
        "meta_mean_motion_dot": -1.88e-06,
        "meta_mean_motion_ddot": 0,
        "tle_line1": "1 35493U 09034A   25339.12558134 -.00000188  00000+0  00000+0 0  9997",
        "tle_line2": "2 35493   0.0168 290.6480 0000459 261.6028 200.9934  1.00270100 44694"
      },
      "geometry": {
        "type": "Point",
        "coordinates": [
          -30.972528493314957,
          0.012639484927149985
        ]
      }
    },
    {
      "type": "Feature",
      "properties": {
        "norad_id": 36097,
        "name": "INTELSAT 14 (IS-14)",
        "group": "intelsat",
        "lat": 0.026971396950870703,
        "lon": 10.214435353586264,
        "alt_km": 35791.27269621871,
        "timestamp": "2025-12-05T22:40:48.226751+00:00",
        "meta_object_name": "INTELSAT 14 (IS-14)",
        "meta_object_id": "2009-064A",
        "meta_epoch": "2025-12-04T20:21:42.208416",
        "meta_mean_motion": 1.00271046,
        "meta_eccentricity": 0.0002724,
        "meta_inclination": 0.0122,
        "meta_ra_of_asc_node": 313.6118,
        "meta_arg_of_pericenter": 301.6263,
        "meta_mean_anomaly": 79.11,
        "meta_ephemeris_type": 0,
        "meta_classification_type": "U",
        "meta_norad_cat_id": 36097,
        "meta_element_set_no": 999,
        "meta_rev_at_epoch": 5865,
        "meta_bstar": 0,
        "meta_mean_motion_dot": -2.6e-06,
        "meta_mean_motion_ddot": 0,
        "tle_line1": "1 36097U 09064A   25338.84840519 -.00000260  00000+0  00000+0 0  9991",
        "tle_line2": "2 36097   0.0122 313.6118 0002724 301.6263  79.1100  1.00271046 58654"
      },
      "geometry": {
        "type": "Point",
        "coordinates": [
          10.214435353586264,
          0.026971396950870703
        ]
      }
    },
    {
      "type": "Feature",
      "properties": {
        "norad_id": 36106,
        "name": "INTELSAT 15 (IS-15)",
        "group": "intelsat",
        "lat": 0.011373827198827121,
        "lon": 140.31236909118655,
        "alt_km": 35791.207657649844,
        "timestamp": "2025-12-05T22:40:48.226763+00:00",
        "meta_object_name": "INTELSAT 15 (IS-15)",
        "meta_object_id": "2009-067A",
        "meta_epoch": "2025-12-05T03:42:38.812896",
        "meta_mean_motion": 1.00270681,
        "meta_eccentricity": 0.00025242,
        "meta_inclination": 0.0104,
        "meta_ra_of_asc_node": 344.54,
        "meta_arg_of_pericenter": 272.2827,
        "meta_mean_anomaly": 318.2152,
        "meta_ephemeris_type": 0,
        "meta_classification_type": "U",
        "meta_norad_cat_id": 36106,
        "meta_element_set_no": 999,
        "meta_rev_at_epoch": 3928,
        "meta_bstar": 0,
        "meta_mean_motion_dot": -1.73e-06,
        "meta_mean_motion_ddot": 0,
        "tle_line1": "1 36106U 09067A   25339.15461589 -.00000173  00000+0  00000+0 0  9999",
        "tle_line2": "2 36106   0.0104 344.5400 0002524 272.2827 318.2152  1.00270681 39285"
      },
      "geometry": {
        "type": "Point",
        "coordinates": [
          140.31236909118655,
          0.011373827198827121
        ]
      }
    },
    {
      "type": "Feature",
      "properties": {
        "norad_id": 36131,
        "name": "DIRECTV 12",
        "group": "intelsat",
        "lat": -0.026176048038500745,
        "lon": -47.552921154895266,
        "alt_km": 35786.46312172693,
        "timestamp": "2025-12-05T22:40:48.226775+00:00",
        "meta_object_name": "DIRECTV 12",
        "meta_object_id": "2009-075A",
        "meta_epoch": "2025-12-05T04:26:38.705280",
        "meta_mean_motion": 1.00268654,
        "meta_eccentricity": 1.303e-05,
        "meta_inclination": 0.0519,
        "meta_ra_of_asc_node": 136.4113,
        "meta_arg_of_pericenter": 197.0915,
        "meta_mean_anomaly": 64.6791,
        "meta_ephemeris_type": 0,
        "meta_classification_type": "U",
        "meta_norad_cat_id": 36131,
        "meta_element_set_no": 999,
        "meta_rev_at_epoch": 4460,
        "meta_bstar": 0,
        "meta_mean_motion_dot": -9.1e-07,
        "meta_mean_motion_ddot": 0,
        "tle_line1": "1 36131U 09075A   25339.18517020 -.00000091  00000+0  00000+0 0  9990",
        "tle_line2": "2 36131   0.0519 136.4113 0000130 197.0915  64.6791  1.00268654 44605"
      },
      "geometry": {
        "type": "Point",
        "coordinates": [
          -47.552921154895266,
          -0.026176048038500745
        ]
      }
    },
    {
      "type": "Feature",
      "properties": {
        "norad_id": 36397,
        "name": "INTELSAT 16 (IS-16)",
        "group": "intelsat",
        "lat": 0.006212096718701195,
        "lon": -20.99083038303347,
        "alt_km": 35784.952714129984,
        "timestamp": "2025-12-05T22:40:48.226788+00:00",
        "meta_object_name": "INTELSAT 16 (IS-16)",
        "meta_object_id": "2010-006A",
        "meta_epoch": "2025-12-05T03:42:35.567712",
        "meta_mean_motion": 1.00271472,
        "meta_eccentricity": 0.00023748,
        "meta_inclination": 0.0082,
        "meta_ra_of_asc_node": 326.2313,
        "meta_arg_of_pericenter": 290.1236,
        "meta_mean_anomaly": 157.311,
        "meta_ephemeris_type": 0,
        "meta_classification_type": "U",
        "meta_norad_cat_id": 36397,
        "meta_element_set_no": 999,
        "meta_rev_at_epoch": 5770,
        "meta_bstar": 0,
        "meta_mean_motion_dot": -2.32e-06,
        "meta_mean_motion_ddot": 0,
        "tle_line1": "1 36397U 10006A   25339.15457833 -.00000232  00000+0  00000+0 0  9999",
        "tle_line2": "2 36397   0.0082 326.2313 0002374 290.1236 157.3110  1.00271472 57700"
      },
      "geometry": {
        "type": "Point",
        "coordinates": [
          -20.99083038303347,
          0.006212096718701195
        ]
      }
    },
    {
      "type": "Feature",
      "properties": {
        "norad_id": 37185,
        "name": "XM-5",
        "group": "intelsat",
        "lat": 0.015197332295462704,
        "lon": -59.99995915801735,
        "alt_km": 35790.758102506086,
        "timestamp": "2025-12-05T22:40:48.226800+00:00",
        "meta_object_name": "XM-5",
        "meta_object_id": "2010-053A",
        "meta_epoch": "2025-12-05T06:18:01.333152",
        "meta_mean_motion": 1.00271269,
        "meta_eccentricity": 0.00013746,
        "meta_inclination": 0.0599,
        "meta_ra_of_asc_node": 273.3534,
        "meta_arg_of_pericenter": 244.4492,
        "meta_mean_anomaly": 255.8355,
        "meta_ephemeris_type": 0,
        "meta_classification_type": "U",
        "meta_norad_cat_id": 37185,
        "meta_element_set_no": 999,
        "meta_rev_at_epoch": 5553,
        "meta_bstar": 0,
        "meta_mean_motion_dot": -1.1e-07,
        "meta_mean_motion_ddot": 0,
        "tle_line1": "1 37185U 10053A   25339.26251543 -.00000011  00000+0  00000+0 0  9994",
        "tle_line2": "2 37185   0.0599 273.3534 0001374 244.4492 255.8355  1.00271269 55539"
      },
      "geometry": {
        "type": "Point",
        "coordinates": [
          -59.99995915801735,
          0.015197332295462704
        ]
      }
    }
  ]
}